NORAD_CAT_ID,OBJECT_NAME,OBJECT_TYPE,EPOCH,MEAN_MOTION,ECCENTRICITY,INCLINATION,RA_OF_ASC_NODE,ARG_OF_PERICENTER,MEAN_ANOMALY,BSTAR,MEAN_MOTION_DOT,MEAN_MOTION_DDOT,TLE_LINE0,TLE_LINE1,TLE_LINE2,SEMIMAJOR_AXIS,PERIOD,APOGEE,PERIGEE,DECAYED
52119.0,STARLINK-3558,PAYLOAD,2022-10-07 00:47:44,15.08842975,0.0001893,53.2189,289.0416,47.4377,312.6774,0.00014586,2.034e-05,0.0,0 STARLINK-3558,1 52119U 22029AH  22280.03315773  .00002034  00000-0  14586-3 0  9992,2 52119  53.2189 289.0416 0001893  47.4377 312.6774 15.08842975 32140,6917.871,95.437,541.0459999999998,538.427,0.0
52119.0,STARLINK-3558,PAYLOAD,2022-10-07 07:09:17,15.08847567,0.0001901,53.2189,287.8522,48.1521,311.9633,0.00018003,2.579e-05,0.0,0 STARLINK-3558,1 52119U 22029AH  22280.29811459  .00002579  00000-0  18003-3 0  9994,2 52119  53.2189 287.8522 0001901  48.1521 311.9633 15.08847567 32174,6917.857,95.437,541.0369999999998,538.4069999999998,0.0
52119.0,STARLINK-3558,PAYLOAD,2022-10-08 03:49:18,15.08840148,0.0001981,53.2176,283.9881,46.8126,313.3031,6.1394e-05,6.89e-06,0.0,0 STARLINK-3558,1 52119U 22029AH  22281.15924027  .00000689  00000-0  61394-4 0  9998,2 52119  53.2176 283.9881 0001981  46.8126 313.3031 15.08840148 32311,6917.88,95.438,541.115,538.375,0.0
52119.0,STARLINK-3558,PAYLOAD,2022-10-08 10:10:51,15.08833654,0.0001905,53.2193,282.7981,45.7915,314.3233,2.4626e-05,1.04e-06,0.0,0 STARLINK-3558,1 52119U 22029AH  22281.42420554  .00000104  00000-0  24626-4 0  9993,2 52119  53.2193 282.7981 0001905  45.7915 314.3233 15.08833654 32351,6917.9,95.438,541.0830000000002,538.447,0.0
52119.0,STARLINK-3558,PAYLOAD,2022-10-09 10:01:37,15.08843346,0.0001953,53.2188,278.3387,45.1217,314.9934,2.5516e-05,1.18e-06,0.0,0 STARLINK-3558,1 52119U 22029AH  22282.41780040  .00000118  00000-0  25516-4 0  9996,2 52119  53.2188 278.3387 0001953  45.1217 314.9934 15.08843346 32508,6917.87,95.437,541.086,538.384,0.0
52119.0,STARLINK-3558,PAYLOAD,2022-10-09 16:23:11,15.08833916,0.0001964,53.2185,277.1481,47.0546,313.061,4.5522e-05,4.36e-06,0.0,0 STARLINK-3558,1 52119U 22029AH  22282.68276715  .00000436  00000-0  45522-4 0  9996,2 52119  53.2185 277.1481 0001964  47.0546 313.0610 15.08833916 32531,6917.899,95.438,541.123,538.405,0.0
52119.0,STARLINK-3558,PAYLOAD,2022-10-10 03:30:52,15.08841996,0.0001648,53.219,275.0648,44.5184,315.5941,6.5886e-05,7.61e-06,0.0,0 STARLINK-3558,1 52119U 22029AH  22283.14644163  .00000761  00000-0  65886-4 0  9990,2 52119  53.2190 275.0648 0001648  44.5184 315.5941 15.08841996 32618,6917.874,95.437,540.879,538.599,0.0
52119.0,STARLINK-3558,PAYLOAD,2022-10-10 05:06:15,15.0884244,0.0001719,53.2188,274.7686,41.9725,318.1398,8.6465e-05,1.088e-05,0.0,0 STARLINK-3558,1 52119U 22029AH  22283.21268132  .00001088  00000-0  86465-4 0  9995,2 52119  53.2188 274.7686 0001719  41.9725 318.1398 15.08842440 32614,6917.873000000001,95.437,540.927,538.549,0.0
52119.0,STARLINK-3558,PAYLOAD,2022-10-10 16:13:58,15.08829976,0.0001794,53.2183,272.6865,40.6619,319.4507,0.00010304,1.352e-05,0.0,0 STARLINK-3558,1 52119U 22029AH  22283.67637101  .00001352  00000-0  10304-3 0  9993,2 52119  53.2183 272.6865 0001794  40.6619 319.4507 15.08829976 32699,6917.911,95.438,541.0169999999998,538.535,0.0
52119.0,STARLINK-3558,PAYLOAD,2022-10-11 03:21:40,15.088386800000002,0.0001788,53.2183,270.6053,43.788,316.3253,9.1042e-05,1.161e-05,0.0,0 STARLINK-3558,1 52119U 22029AH  22284.14004692  .00001161  00000-0  91042-4 0  9996,2 52119  53.2183 270.6053 0001788  43.7880 316.3253 15.08838680 32767,6917.884,95.438,540.986,538.513,0.0
52119.0,STARLINK-3558,PAYLOAD,2022-10-11 08:07:49,15.08833659,0.0001696999999999,53.2182,269.7134,43.3137,316.7989,5.7267e-05,6.23e-06,0.0,0 STARLINK-3558,1 52119U 22029AH  22284.33877167  .00000623  00000-0  57267-4 0  9995,2 52119  53.2182 269.7134 0001697  43.3137 316.7989 15.08833659 32799,6917.9,95.438,540.939,538.591,0.0
52119.0,STARLINK-3558,PAYLOAD,2022-10-12 04:47:52,15.08821957,0.0001825,53.2194,265.8484,42.9718,317.1416,-8.675399999999999e-05,-1.668e-05,0.0,0 STARLINK-3558,1 52119U 22029AH  22285.19991189 -.00001668  00000-0 -86754-4 0  9996,2 52119  53.2194 265.8484 0001825  42.9718 317.1416 15.08821957 32923,6917.936,95.439,541.063,538.538,0.0
52119.0,STARLINK-3558,PAYLOAD,2022-10-12 07:58:38,15.08825621,0.0001871,53.2196,265.2538,44.0077,316.1064,-7.819600000000001e-05,-1.532e-05,0.0,0 STARLINK-3558,1 52119U 22029AH  22285.33239102 -.00001532  00000-0 -78196-4 0  9993,2 52119  53.2196 265.2538 0001871  44.0077 316.1064 15.08825621 32932,6917.924,95.438,541.0840000000002,538.495,0.0
52119.0,STARLINK-3558,PAYLOAD,2022-10-12 15:55:34,15.08828405,0.0001937,53.2194,263.7671,45.5654,314.5496,7.7946e-05,9.52e-06,0.0,0 STARLINK-3558,1 52119U 22029AH  22285.66358962  .00000952  00000-0  77946-4 0  9990,2 52119  53.2194 263.7671 0001937  45.5654 314.5496 15.08828405 32980,6917.916,95.438,541.121,538.441,0.0
52119.0,STARLINK-3558,PAYLOAD,2022-10-13 04:38:38,15.08844223,0.0001705,53.2191,261.3882,47.9414,312.1723,0.00013274,1.825e-05,0.0,0 STARLINK-3558,1 52119U 22029AH  22286.19350000  .00001825  00000-0  13274-3 0  9997,2 52119  53.2191 261.3882 0001705  47.9414 312.1723 15.08844223 33072,6917.8669999999975,95.437,540.9119999999998,538.553,0.0
52119.0,STARLINK-3558,PAYLOAD,2022-10-13 07:49:24,15.08845079,0.0001769,53.2189,260.7935,49.7116,310.4031,0.00023212,3.409e-05,0.0,0 STARLINK-3558,1 52119U 22029AH  22286.32597798  .00003409  00000-0  23212-3 0  9992,2 52119  53.2189 260.7935 0001769  49.7116 310.4031 15.08845079 33084,6917.865,95.437,540.9540000000002,538.506,0.0
52119.0,STARLINK-3558,PAYLOAD,2022-10-13 15:46:20,15.08847156,0.0001655,53.2189,259.3063,54.2412,305.8734,0.00027256,4.053e-05,0.0,0 STARLINK-3558,1 52119U 22029AH  22286.65717700  .00004053  00000-0  27256-3 0  9993,2 52119  53.2189 259.3063 0001655  54.2412 305.8734 15.08847156 33136,6917.859,95.437,540.868,538.5790000000002,0.0
52119.0,STARLINK-3558,PAYLOAD,2022-10-14 07:40:12,15.08844583,0.0001928,53.2185,256.3339,42.3135,317.8006,0.00032593,4.904e-05,0.0,0 STARLINK-3558,1 52119U 22029AH  22287.31958387  .00004904  00000-0  32593-3 0  9990,2 52119  53.2185 256.3339 0001928  42.3135 317.8006 15.08844583 33235,6917.866,95.437,541.065,538.398,0.0
52119.0,STARLINK-3558,PAYLOAD,2022-10-15 01:09:25,15.08859164,0.0001932,53.2185,253.0635,47.2484,312.867,0.00015405,2.166e-05,0.0,0 STARLINK-3558,1 52119U 22029AH  22288.04820981  .00002166  00000-0  15405-3 0  9990,2 52119  53.2185 253.0635 0001932  47.2484 312.8670 15.08859164 33350,6917.821999999999,95.436,541.023,538.35,0.0
52119.0,STARLINK-3558,PAYLOAD,2022-10-15 07:30:57,15.08849193,0.000199,53.2194,251.8752,43.5981,316.5168,0.00016646,2.363e-05,0.0,0 STARLINK-3558,1 52119U 22029AH  22288.31317049  .00002363  00000-0  16646-3 0  9993,2 52119  53.2194 251.8752 0001990  43.5981 316.5168 15.08849193 33399,6917.852,95.437,541.094,538.341,0.0
52119.0,STARLINK-3558,PAYLOAD,2022-10-15 17:03:16,15.08855503,0.0001896999999999,53.2194,250.0909,44.956,315.1585,1.3537e-05,-7.3e-07,0.0,0 STARLINK-3558,1 52119U 22029AH  22288.71060495 -.00000073  00000-0  13537-4 0  9991,2 52119  53.2194 250.0909 0001897  44.9560 315.1585 15.08855503 33444,6917.833000000001,95.437,541.01,538.386,0.0
52119.0,STARLINK-3558,PAYLOAD,2022-10-16 04:10:58,15.08846597,0.0001799,53.2189,248.0075,51.5706,308.5448,-7.154399999999999e-05,-1.427e-05,0.0,0 STARLINK-3558,1 52119U 22029AH  22289.17428858 -.00001427  00000-0 -71544-4 0  9990,2 52119  53.2189 248.0075 0001799  51.5706 308.5448 15.08846597 33522,6917.86,95.437,540.97,538.481,0.0
52119.0,STARLINK-3558,PAYLOAD,2022-10-16 07:21:44,15.08842197,0.0001828,53.2193,247.4141,50.7172,309.3982,-3.0066e-05,-7.67e-06,0.0,0 STARLINK-3558,1 52119U 22029AH  22289.30676924 -.00000767  00000-0 -30066-4 0  9994,2 52119  53.2193 247.4141 0001828  50.7172 309.3982 15.08842197 33530,6917.874,95.437,541.003,538.474,0.0
52119.0,STARLINK-3558,PAYLOAD,2022-10-16 16:54:05,15.08822784,0.0001456,53.2193,245.63,44.8892,315.2218,-0.00015342,-2.728e-05,0.0,0 STARLINK-3558,1 52119U 22029AH  22289.70422618 -.00002728  00000-0 -15342-3 0  9995,2 52119  53.2193 245.6300 0001456  44.8892 315.2218 15.08822784 33603,6917.933000000001,95.439,540.805,538.7909999999998,0.0
52119.0,STARLINK-3558,PAYLOAD,2022-10-16 18:29:28,15.08828308,0.0001754999999999,53.2194,245.3317,44.35,315.7633,-0.00018425,-3.218e-05,0.0,0 STARLINK-3558,1 52119U 22029AH  22289.77046457 -.00003218  00000-0 -18425-3 0  9995,2 52119  53.2194 245.3317 0001755  44.3500 315.7633 15.08828308 33606,6917.916,95.438,540.995,538.567,0.0
52119.0,STARLINK-3558,PAYLOAD,2022-10-17 04:01:45,15.08841764,0.0001716,53.2191,243.5473,47.6082,312.5055,-5.3849e-05,-1.145e-05,0.0,0 STARLINK-3558,1 52119U 22029AH  22290.16789316 -.00001145  00000-0 -53849-4 0  9995,2 52119  53.2191 243.5473 0001716  47.6082 312.5055 15.08841764 33675,6917.875,95.437,540.927,538.553,0.0
52119.0,STARLINK-3558,PAYLOAD,2022-10-17 07:12:32,15.08843227,0.000172,53.2189,242.9523,49.4637,310.6504,-3.5363e-05,-8.51e-06,0.0,0 STARLINK-3558,1 52119U 22029AH  22290.30037180 -.00000851  00000-0 -35363-4 0  9990,2 52119  53.2189 242.9523 0001720  49.4637 310.6504 15.08843227 33687,6917.871,95.437,540.925,538.5459999999998,0.0
52119.0,STARLINK-3558,PAYLOAD,2022-10-17 16:44:51,15.08840669,0.0001778,53.2185,241.1687,52.9194,307.1961,-2.5622e-06,-3.29e-06,0.0,0 STARLINK-3558,1 52119U 22029AH  22290.69781323 -.00000329  00000-0 -25622-5 0  9995,2 52119  53.2185 241.1687 0001778  52.9194 307.1961 15.08840669 33747,6917.878000000002,95.438,540.9730000000002,538.513,0.0
52119.0,STARLINK-3558,PAYLOAD,2022-10-18 03:52:33,15.08836885,0.0001730999999999,53.2187,239.087,54.5776,305.5378,6.6776e-05,7.75e-06,0.0,0 STARLINK-3558,1 52119U 22029AH  22291.16149536  .00000775  00000-0  66776-4 0  9999,2 52119  53.2187 239.0870 0001731  54.5776 305.5378 15.08836885 33819,6917.89,95.438,540.952,538.557,0.0
